[{"OBJECT_NAME":"OCO 2","OBJECT_ID":"2014-035A","EPOCH":"2026-03-09T22:15:57.149856","MEAN_MOTION":14.57095091,"ECCENTRICITY":0.00012283,"INCLINATION":98.2095,"RA_OF_ASC_NODE":11.7709,"ARG_OF_PERICENTER":93.7324,"MEAN_ANOMALY":266.4015,"EPHEMERIS_TYPE":0,"CLASSIFICATION_TYPE":"U","NORAD_CAT_ID":40059,"ELEMENT_SET_NO":999,"REV_AT_EPOCH":62159,"BSTAR":0.00017420866,"MEAN_MOTION_DOT":7.39e-6,"MEAN_MOTION_DDOT":0},{"OBJECT_NAME":"COSMOS 1900","OBJECT_ID":"1987-101A","EPOCH":"2026-03-09T22:07:19.119648","MEAN_MOTION":14.55625081,"ECCENTRICITY":0.00331725,"INCLINATION":66.0844,"RA_OF_ASC_NODE":303.8552,"ARG_OF_PERICENTER":174.2642,"MEAN_ANOMALY":185.8851,"EPHEMERIS_TYPE":0,"CLASSIFICATION_TYPE":"U","NORAD_CAT_ID":18665,"ELEMENT_SET_NO":999,"REV_AT_EPOCH":3403,"BSTAR":5.4100815e-5,"MEAN_MOTION_DOT":1.34e-6,"MEAN_MOTION_DDOT":0}]
